$$SOE
2460714.500000000, A.D. 2025-Feb-08 00:00:00.0000, 2.608674197017995E+08, -1.425821349110340E+08, 3.027026016293826E+07,
2460721.500000000, A.D. 2025-Feb-15 00:00:00.0000, 2.644614495777835E+08, -1.293334889789522E+08, 3.174600884928673E+07,
2460728.500000000, A.D. 2025-Feb-22 00:00:00.0000, 2.675609850580397E+08, -1.158431788172581E+08, 3.316238802670457E+07,
2460735.500000000, A.D. 2025-Mar-01 00:00:00.0000, 2.701465300927614E+08, -1.021304942334298E+08, 3.451505081638964E+07,
2460742.500000000, A.D. 2025-Mar-08 00:00:00.0000, 2.721992037911506E+08, -8.821651402189180E+07, 3.579962030846752E+07,
2460749.500000000, A.D. 2025-Mar-15 00:00:00.0000, 2.737009196978920E+08, -7.412412901012300E+07, 3.701171561095214E+07,
2460756.500000000, A.D. 2025-Mar-22 00:00:00.0000, 2.746345751476172E+08, -5.987804757821863E+07, 3.814698120008950E+07,
2460763.500000000, A.D. 2025-Mar-29 00:00:00.0000, 2.749842523703601E+08, -4.550478156420179E+07, 3.920111908393897E+07,
2460770.500000000, A.D. 2025-Apr-05 00:00:00.0000, 2.747354291475173E+08, -3.103260659672908E+07, 4.016992381123950E+07,
2460777.500000000, A.D. 2025-Apr-12 00:00:00.0000, 2.738751939226586E+08, -1.649149418365147E+07, 4.104932020074917E+07,
2460784.500000000, A.D. 2025-Apr-19 00:00:00.0000, 2.723924613649081E+08, -1.913014272704259E+06, 4.183540329904539E+07,
2460791.500000000, A.D. 2025-Apr-26 00:00:00.0000, 2.702781842354556E+08, 1.266979311527520E+07, 4.252447995543253E+07,
2460798.500000000, A.D. 2025-May-03 00:00:00.0000, 2.675255567261612E+08, 2.722257807630358E+07, 4.311311130399974E+07,
2460805.500000000, A.D. 2025-May-10 00:00:00.0000, 2.641302039573279E+08, 4.170987284080235E+07, 4.359815532751718E+07,
2460812.500000000, A.D. 2025-May-17 00:00:00.0000, 2.600903521051954E+08, 5.609531456029998E+07, 4.397680856835739E+07,
2460819.500000000, A.D. 2025-May-24 00:00:00.0000, 2.554069737559999E+08, 7.034189667999555E+07, 4.424664595941536E+07,
2460826.500000000, A.D. 2025-May-31 00:00:00.0000, 2.500839035557133E+08, 8.441224591561779E+07, 4.440565770792766E+07,
2460833.500000000, A.D. 2025-Jun-07 00:00:00.0000, 2.441279188853787E+08, 9.826892160611120E+07, 4.445228230457740E+07,
2460840.500000000, A.D. 2025-Jun-14 00:00:00.0000, 2.375487791042239E+08, 1.118747313023441E+08, 4.438543481088116E+07,
2460847.500000000, A.D. 2025-Jun-21 00:00:00.0000, 2.303592215298688E+08, 1.251930529309116E+08, 4.420452913703106E+07,
2460854.500000000, A.D. 2025-Jun-28 00:00:00.0000, 2.225749154469482E+08, 1.381881582100883E+08, 4.390949338895126E+07,
2460861.500000000, A.D. 2025-Jul-05 00:00:00.0000, 2.142143721696594E+08, 1.508255319961778E+08, 4.350077800722516E+07,
2460868.500000000, A.D. 2025-Jul-12 00:00:00.0000, 2.052988109958835E+08, 1.630721792017914E+08, 4.297935637545796E+07,
2460875.500000000, A.D. 2025-Jul-19 00:00:00.0000, 1.958519837539109E+08, 1.748969114182227E+08, 4.234671771509760E+07,
2460882.500000000, A.D. 2025-Jul-26 00:00:00.0000, 1.858999620575709E+08, 1.862706064893896E+08, 4.160485238086146E+07,
2460889.500000000, A.D. 2025-Aug-02 00:00:00.0000, 1.754708924681102E+08, 1.971664352643500E+08, 4.075622994205079E+07,
2460896.500000000, A.D. 2025-Aug-09 00:00:00.0000, 1.645947257068624E+08, 2.075600508684598E+08, 3.980377066583338E+07,
2460903.500000000, A.D. 2025-Aug-16 00:00:00.0000, 1.533029268066985E+08, 2.174297371093784E+08, 3.875081120340930E+07,
2460910.500000000, A.D. 2025-Aug-23 00:00:00.0000, 1.416281736638581E+08, 2.267565141383489E+08, 3.760106541669939E+07,
2460917.500000000, A.D. 2025-Aug-30 00:00:00.0000, 1.296040515157468E+08, 2.355242016350811E+08, 3.635858144394520E+07,
2460924.500000000, A.D. 2025-Sep-06 00:00:00.0000, 1.172647488479466E+08, 2.437194414525702E+08, 3.502769634710422E+07,
2460931.500000000, A.D. 2025-Sep-13 00:00:00.0000, 1.046447594289241E+08, 2.513316794257173E+08, 3.361298943747650E+07,
2460938.500000000, A.D. 2025-Sep-20 00:00:00.0000, 9.177859938915652E+07, 2.583531079715808E+08, 3.211923496084073E+07,
2460945.500000000, A.D. 2025-Sep-27 00:00:00.0000, 7.870054516213793E+07, 2.647785766514853E+08, 3.055135531615447E+07,
2460952.500000000, A.D. 2025-Oct-04 00:00:00.0000, 6.544439399155514E+07, 2.706054758243964E+08, 2.891437592277445E+07,
2460959.500000000, A.D. 2025-Oct-11 00:00:00.0000, 5.204324929723636E+07, 2.758335973649932E+08, 2.721338244168036E+07,
2460966.500000000, A.D. 2025-Oct-18 00:00:00.0000, 3.852933283646400E+07, 2.804649771882275E+08, 2.545348090324168E+07,
2460973.500000000, A.D. 2025-Oct-25 00:00:00.0000, 2.493382451423049E+07, 2.845037245041828E+08, 2.363976118024780E+07,
2460980.500000000, A.D. 2025-Nov-01 00:00:00.0000, 1.128672976402638E+07, 2.879558424628022E+08, 2.177726410852252E+07,
2460987.500000000, A.D. 2025-Nov-08 00:00:00.0000, -2.383226288279651E+06, 2.908290444064696E+08, 1.987095241850837E+07,
2460994.500000000, A.D. 2025-Nov-15 00:00:00.0000, -1.604867911838952E+07, 2.931325694400917E+08, 1.792568550797270E+07,
2461001.500000000, A.D. 2025-Nov-22 00:00:00.0000, -2.968368097094801E+07, 2.948770007769858E+08, 1.594619798261514E+07,
2461008.500000000, A.D. 2025-Nov-29 00:00:00.0000, -4.326373516985761E+07, 2.960740906905068E+08, 1.393708193322240E+07,
2461015.500000000, A.D. 2025-Dec-06 00:00:00.0000, -5.676581313607000E+07, 2.967365940924085E+08, 1.190277294264159E+07,
2461022.500000000, A.D. 2025-Dec-13 00:00:00.0000, -7.016835603918520E+07, 2.968781089921461E+08, 9.847539255244598E+06,
2461029.500000000, A.D. 2025-Dec-20 00:00:00.0000, -8.345125995893759E+07, 2.965129260249987E+08, 7.775473591644526E+06,
2461036.500000000, A.D. 2025-Dec-27 00:00:00.0000, -9.659584791176587E+07, 2.956558904136656E+08, 5.690487619739339E+06,
2461043.500000000, A.D. 2026-Jan-03 00:00:00.0000, -1.095848323432184E+08, 2.943222761445872E+08, 3.596308859637022E+06,
2461050.500000000, A.D. 2026-Jan-10 00:00:00.0000, -1.224022699606178E+08, 2.925276717661270E+08, 1.496479656271279E+06,
2461057.500000000, A.D. 2026-Jan-17 00:00:00.0000, -1.350335104768001E+08, 2.902878775584639E+08, -6.056420973734409E+05,
2461064.500000000, A.D. 2026-Jan-24 00:00:00.0000, -1.474651407987313E+08, 2.876188137469271E+08, -2.706880762435302E+06,
2461071.500000000, A.D. 2026-Jan-31 00:00:00.0000, -1.596849260563551E+08, 2.845364392576273E+08, -4.804239534407347E+06,
2461078.500000000, A.D. 2026-Feb-07 00:00:00.0000, -1.716817486384495E+08, 2.810566803649532E+08, -6.894896039478913E+06,
2461085.500000000, A.D. 2026-Feb-14 00:00:00.0000, -1.834455460262296E+08, 2.771953685572338E+08, -8.976197176697671E+06,
2461092.500000000, A.D. 2026-Feb-21 00:00:00.0000, -1.949672479079827E+08, 2.729681874996358E+08, -1.104565337716976E+07,
2461099.500000000, A.D. 2026-Feb-28 00:00:00.0000, -2.062387143747240E+08, 2.683906295330758E+08, -1.310093224764034E+07,
2461106.500000000, A.D. 2026-Mar-07 00:00:00.0000, -2.172526778287202E+08, 2.634779590479674E+08, -1.513985170941509E+07,
2461113.500000000, A.D. 2026-Mar-14 00:00:00.0000, -2.280026862710450E+08, 2.582451796957420E+08, -1.716037319631383E+07,
2461120.500000000, A.D. 2026-Mar-21 00:00:00.0000, -2.384830465287671E+08, 2.527070076508843E+08, -1.916059493697171E+07,
2461127.500000000, A.D. 2026-Mar-28 00:00:00.0000, -2.486887696921436E+08, 2.468778513148600E+08, -2.113874513755168E+07,
2461134.500000000, A.D. 2026-Apr-04 00:00:00.0000, -2.586155195415097E+08, 2.407717959018308E+08, -2.309317515788957E+07,
2461141.500000000, A.D. 2026-Apr-11 00:00:00.0000, -2.682595637988104E+08, 2.344025919901148E+08, -2.502235279083616E+07,
2461148.500000000, A.D. 2026-Apr-18 00:00:00.0000, -2.776177281013970E+08, 2.277836475211194E+08, -2.692485570377114E+07,
2461155.500000000, A.D. 2026-Apr-25 00:00:00.0000, -2.866873526659549E+08, 2.209280227948868E+08, -2.879936507953681E+07,
2461162.500000000, A.D. 2026-May-02 00:00:00.0000, -2.954662515901436E+08, 2.138484280117395E+08, -3.064465948805261E+07,
2461169.500000000, A.D. 2026-May-09 00:00:00.0000, -3.039526746170563E+08, 2.065572229156081E+08, -3.245960902441379E+07,
2461176.500000000, A.D. 2026-May-16 00:00:00.0000, -3.121452709111204E+08, 1.990664183391732E+08, -3.424316974958142E+07,
2461183.500000000, A.D. 2026-May-23 00:00:00.0000, -3.200430547020599E+08, 1.913876803711264E+08, -3.599437836197730E+07,
2461190.500000000, A.D. 2026-May-30 00:00:00.0000, -3.276453747724503E+08, 1.835323371957673E+08, -3.771234688577094E+07,
2461197.500000000, A.D. 2026-Jun-06 00:00:00.0000, -3.349518879965513E+08, 1.755113850935849E+08, -3.939625761340031E+07,
2461204.500000000, A.D. 2026-Jun-13 00:00:00.0000, -3.419625331476480E+08, 1.673354935900443E+08, -4.104535861754777E+07,
2461211.500000000, A.D. 2026-Jun-20 00:00:00.0000, -3.486775053610767E+08, 1.590150124892751E+08, -4.265895954136813E+07,
2461218.500000000, A.D. 2026-Jun-27 00:00:00.0000, -3.550972328458187E+08, 1.505599802936163E+08, -4.423642753474926E+07,
2461225.500000000, A.D. 2026-Jul-04 00:00:00.0000, -3.612223557372206E+08, 1.419801331025204E+08, -4.577718339492359E+07,
2461232.500000000, A.D. 2026-Jul-11 00:00:00.0000, -3.670537067257510E+08, 1.332849137448266E+08, -4.728069793787766E+07,
2461239.500000000, A.D. 2026-Jul-18 00:00:00.0000, -3.725922932593143E+08, 1.244834810698633E+08, -4.874648859762879E+07,
2461246.500000000, A.D. 2026-Jul-25 00:00:00.0000, -3.778392811891809E+08, 1.155847193129912E+08, -5.017411624529584E+07,
2461253.500000000, A.D. 2026-Aug-01 00:00:00.0000, -3.827959797111513E+08, 1.065972474128425E+08, -5.156318222596991E+07,
2461260.500000000, A.D. 2026-Aug-08 00:00:00.0000, -3.874638272921710E+08, 9.752942818123226E+07, -5.291332562566811E+07,
2461267.500000000, A.D. 2026-Aug-15 00:00:00.0000, -3.918443780776422E+08, 8.838937772312784E+07, -5.422422075932487E+07,
2461274.500000000, A.D. 2026-Aug-22 00:00:00.0000, -3.959392894561754E+08, 7.918497628349409E+07, -5.549557470012128E+07,
2461281.500000000, A.D. 2026-Aug-29 00:00:00.0000, -3.997503129935943E+08, 6.992387911155897E+07, -5.672712474316189E+07,
$$EOE